{
  "type": "FeatureCollection",
  "features": [
    {
      "type": "Feature",
      "properties": {
        "name": "moratuwa"
      },
      "geometry": {
        "coordinates": [
          [
            [
              79.898544,
              6.817603
            ],
            [
              79.900946,
              6.815877
            ],
            [
              79.903276,
              6.810261
            ],
            [
              79.903445,
              6.805643
            ],
            [
              79.903846,
              6.802165
            ],
            [
              79.905075,
              6.798642
            ],
            [
              79.906863,
              6.792529
            ],
            [
              79.908244,
              6.785963
            ],
            [
              79.909915,
              6.783835
            ],
            [
              79.911052,
              6.781193
            ],
            [
              79.905547,
              6.770836
            ],
            [
              79.901681,
              6.771989
            ],
            [
              79.895155,
              6.773412
            ],
            [
              79.89216,
              6.773583
            ],
            [
              79.890251,
              6.771779
            ],
            [
              79.89128506304068,
              6.764084375218361
            ],
            [
              79.89156885397553,
              6.756950162551362
            ],
            [
              79.89385692486654,
              6.750389817700622
            ],
            [
              79.89913286232073,
              6.73475080192704
            ],
            [
              79.90191509437813,
              6.724513277554529
            ],
            [
              79.90273306834166,
              6.720248063000904
            ],
            [
              79.9015455116009,
              6.717121161429442
            ],
            [
              79.877029,
              6.765833
            ],
            [
              79.876221,
              6.766639
            ],
            [
              79.876221,
              6.769166
            ],
            [
              79.87542,
              6.769972
            ],
            [
              79.874557,
              6.774972
            ],
            [
              79.872055,
              6.780806
            ],
            [
              79.871246,
              6.785806
            ],
            [
              79.870392,
              6.786667
            ],
            [
              79.870392,
              6.789139
            ],
            [
              79.869553,
              6.79
            ],
            [
              79.869553,
              6.794139
            ],
            [
              79.866219,
              6.800778
            ],
            [
              79.86628,
              6.804111
            ],
            [
              79.866018,
              6.804488
            ],
            [
              79.878699,
              6.808999
            ],
            [
              79.881763,
              6.810847
            ],
            [
              79.884429,
              6.8112
            ],
            [
              79.88792,
              6.813239
            ],
            [
              79.898544,
              6.817603
            ]
          ]
        ],
        "type": "Polygon"
      }
    },
    {
      "type": "Feature",
      "properties": {
        "name": "colombo"
      },
      "geometry": {
        "coordinates": [
          [
            [
              [
                79.883582,
                6.975983
              ],
              [
                79.884602,
                6.972909
              ],
              [
                79.884613,
                6.971639
              ],
              [
                79.879585,
                6.961639
              ],
              [
                79.879974,
                6.959556
              ],
              [
                79.881413,
                6.960994
              ],
              [
                79.879948,
                6.957006
              ],
              [
                79.878725,
                6.955994
              ],
              [
                79.875892,
                6.953033
              ],
              [
                79.873937,
                6.950377
              ],
              [
                79.875622,
                6.94639
              ],
              [
                79.878159,
                6.942624
              ],
              [
                79.879717,
                6.941023
              ],
              [
                79.881301,
                6.933513
              ],
              [
                79.876745,
                6.931165
              ],
              [
                79.871717,
                6.92827
              ],
              [
                79.870046,
                6.924419
              ],
              [
                79.868904,
                6.920815
              ],
              [
                79.865397,
                6.916638
              ],
              [
                79.852813,
                6.914368
              ],
              [
                79.845413,
                6.914766
              ],
              [
                79.845413,
                6.916639
              ],
              [
                79.844559,
                6.9175
              ],
              [
                79.84375,
                6.9225
              ],
              [
                79.842888,
                6.923278
              ],
              [
                79.842857,
                6.925806
              ],
              [
                79.840385,
                6.93
              ],
              [
                79.841248,
                6.933278
              ],
              [
                79.840385,
                6.934139
              ],
              [
                79.840385,
                6.935805
              ],
              [
                79.842087,
                6.938278
              ],
              [
                79.842888,
                6.943278
              ],
              [
                79.84375,
                6.944139
              ],
              [
                79.843719,
                6.948333
              ],
              [
                79.844528,
                6.949139
              ],
              [
                79.844582,
                6.955
              ],
              [
                79.846252,
                6.955
              ],
              [
                79.847054,
                6.951667
              ],
              [
                79.846252,
                6.950806
              ],
              [
                79.847054,
                6.948278
              ],
              [
                79.846275,
                6.947472
              ],
              [
                79.846222,
                6.944139
              ],
              [
                79.845413,
                6.943278
              ],
              [
                79.845413,
                6.939139
              ],
              [
                79.846222,
                6.939139
              ],
              [
                79.846642,
                6.942083
              ],
              [
                79.848694,
                6.941694
              ],
              [
                79.849167,
                6.937889
              ],
              [
                79.85083,
                6.939556
              ],
              [
                79.851639,
                6.939556
              ],
              [
                79.854553,
                6.942444
              ],
              [
                79.856224,
                6.945833
              ],
              [
                79.855392,
                6.948306
              ],
              [
                79.856224,
                6.949167
              ],
              [
                79.856247,
                6.951639
              ],
              [
                79.857056,
                6.953306
              ],
              [
                79.855392,
                6.954167
              ],
              [
                79.855392,
                6.954972
              ],
              [
                79.856247,
                6.955833
              ],
              [
                79.856247,
                6.9575
              ],
              [
                79.854973,
                6.957889
              ],
              [
                79.854553,
                6.959167
              ],
              [
                79.85997,
                6.962889
              ],
              [
                79.860832,
                6.962917
              ],
              [
                79.862503,
                6.964583
              ],
              [
                79.864166,
                6.963722
              ],
              [
                79.865364,
                6.964111
              ],
              [
                79.866219,
                6.965833
              ],
              [
                79.866219,
                6.972445
              ],
              [
                79.86747,
                6.973722
              ],
              [
                79.869614,
                6.973333
              ],
              [
                79.869614,
                6.971667
              ],
              [
                79.868752,
                6.970861
              ],
              [
                79.869141,
                6.967916
              ],
              [
                79.870003,
                6.967916
              ],
              [
                79.872086,
                6.97
              ],
              [
                79.871193,
                6.973333
              ],
              [
                79.876663,
                6.977944
              ],
              [
                79.879997,
                6.977944
              ],
              [
                79.883331,
                6.976222
              ],
              [
                79.883582,
                6.975983
              ]
            ]
          ],
          [
            [
              [
                79.869583,
                6.98078
              ],
              [
                79.874088,
                6.98238
              ],
              [
                79.881076,
                6.983537
              ],
              [
                79.88267,
                6.978731
              ],
              [
                79.881668,
                6.979556
              ],
              [
                79.874107,
                6.979528
              ],
              [
                79.870804,
                6.97625
              ],
              [
                79.869141,
                6.97625
              ],
              [
                79.868721,
                6.979167
              ],
              [
                79.869583,
                6.979972
              ],
              [
                79.869583,
                6.98078
              ]
            ]
          ]
        ],
        "type": "MultiPolygon"
      }
    },
    {
      "type": "Feature",
      "properties": {
        "name": "dehiwala"
      },
      "geometry": {
        "coordinates": [
          [
            [
              79.885807,
              6.871649
            ],
            [
              79.89435,
              6.866215
            ],
            [
              79.885198,
              6.857116
            ],
            [
              79.886596,
              6.850226
            ],
            [
              79.888055,
              6.843524
            ],
            [
              79.883603,
              6.841385
            ],
            [
              79.87592,
              6.843126
            ],
            [
              79.872557,
              6.847197
            ],
            [
              79.869522,
              6.847923
            ],
            [
              79.858749,
              6.845295
            ],
            [
              79.858749,
              6.846667
            ],
            [
              79.857887,
              6.847472
            ],
            [
              79.857056,
              6.855778
            ],
            [
              79.856247,
              6.856639
            ],
            [
              79.855932,
              6.861385
            ],
            [
              79.863076,
              6.863744
            ],
            [
              79.864932,
              6.864932
            ],
            [
              79.8659,
              6.868154
            ],
            [
              79.867769,
              6.87222
            ],
            [
              79.871162,
              6.873813
            ],
            [
              79.879529,
              6.872904
            ],
            [
              79.885807,
              6.871649
            ]
          ]
        ],
        "type": "Polygon"
      }
    },
    {
      "type": "Feature",
      "properties": {
        "name": "homagama"
      },
      "geometry": {
        "coordinates": [
          [
            [
              79.967052,
              6.832271
            ],
            [
              79.970288,
              6.831739
            ],
            [
              79.97638,
              6.83234
            ],
            [
              79.980083,
              6.835166
            ],
            [
              79.984352,
              6.837992
            ],
            [
              79.989786,
              6.841244
            ],
            [
              79.992199,
              6.844181
            ],
            [
              79.992551,
              6.845353
            ],
            [
              79.990645,
              6.85016
            ],
            [
              79.988652,
              6.854869
            ],
            [
              79.988615,
              6.856886
            ],
            [
              79.992701,
              6.859321
            ],
            [
              79.999242,
              6.861248
            ],
            [
              80.002505,
              6.861381
            ],
            [
              80.005326,
              6.864556
            ],
            [
              80.007128,
              6.86775
            ],
            [
              80.00635,
              6.871705
            ],
            [
              80.006881,
              6.876825
            ],
            [
              80.008542,
              6.879044
            ],
            [
              80.009999,
              6.884671
            ],
            [
              80.011388,
              6.890469
            ],
            [
              80.015137,
              6.891281
            ],
            [
              80.01981,
              6.891048
            ],
            [
              80.021267,
              6.890488
            ],
            [
              80.022768,
              6.88635
            ],
            [
              80.024834,
              6.881916
            ],
            [
              80.030576,
              6.881445
            ],
            [
              80.03733,
              6.882704
            ],
            [
              80.038911,
              6.885858
            ],
            [
              80.038996,
              6.889033
            ],
            [
              80.037566,
              6.892705
            ],
            [
              80.036259,
              6.897377
            ],
            [
              80.036104,
              6.902399
            ],
            [
              80.035876,
              6.905381
            ],
            [
              80.045668,
              6.913605
            ],
            [
              80.050724,
              6.911356
            ],
            [
              80.05809,
              6.908938
            ],
            [
              80.066678,
              6.90939
            ],
            [
              80.066862,
              6.904232
            ],
            [
              80.067277,
              6.897421
            ],
            [
              80.067926,
              6.894969
            ],
            [
              80.068387,
              6.894121
            ],
            [
              80.068292,
              6.890929
            ],
            [
              80.068758,
              6.885737
            ],
            [
              80.070415,
              6.882874
            ],
            [
              80.072308,
              6.879456
            ],
            [
              80.075939,
              6.874061
            ],
            [
              80.081115,
              6.860297
            ],
            [
              80.079307,
              6.858293
            ],
            [
              80.07859,
              6.851564
            ],
            [
              80.076784,
              6.843929
            ],
            [
              80.073238,
              6.840959
            ],
            [
              80.071247,
              6.840606
            ],
            [
              80.069428,
              6.83954
            ],
            [
              80.065251,
              6.835184
            ],
            [
              80.06152,
              6.83156
            ],
            [
              80.058805,
              6.831322
            ],
            [
              80.054766,
              6.832041
            ],
            [
              80.0504,
              6.833149
            ],
            [
              80.043816,
              6.830525
            ],
            [
              80.039872,
              6.827173
            ],
            [
              80.040784,
              6.82441
            ],
            [
              80.042385,
              6.819518
            ],
            [
              80.044097,
              6.814328
            ],
            [
              80.041515,
              6.80521
            ],
            [
              80.039272,
              6.804839
            ],
            [
              80.034564,
              6.802693
            ],
            [
              80.031437,
              6.799404
            ],
            [
              80.030794,
              6.79643
            ],
            [
              80.027604,
              6.791356
            ],
            [
              80.021868,
              6.788178
            ],
            [
              80.01874,
              6.788376
            ],
            [
              80.014083,
              6.784083
            ],
            [
              80.009892,
              6.780014
            ],
            [
              80.009064,
              6.78
            ],
            [
              80.00529,
              6.776654
            ],
            [
              79.999838,
              6.772041
            ],
            [
              79.997234,
              6.770112
            ],
            [
              79.995274,
              6.767719
            ],
            [
              79.992313,
              6.764022
            ],
            [
              79.98632,
              6.762178
            ],
            [
              79.981261,
              6.762201
            ],
            [
              79.971387,
              6.759997
            ],
            [
              79.958168,
              6.758893
            ],
            [
              79.95368,
              6.761831
            ],
            [
              79.949468,
              6.764726
            ],
            [
              79.94977,
              6.766917
            ],
            [
              79.950332,
              6.769322
            ],
            [
              79.954298,
              6.772508
            ],
            [
              79.959666,
              6.775442
            ],
            [
              79.962206,
              6.778369
            ],
            [
              79.964138,
              6.782858
            ],
            [
              79.965016,
              6.785394
            ],
            [
              79.963449,
              6.790566
            ],
            [
              79.961734,
              6.795202
            ],
            [
              79.960459,
              6.796041
            ],
            [
              79.958744,
              6.796643
            ],
            [
              79.95572,
              6.797639
            ],
            [
              79.952192,
              6.80098
            ],
            [
              79.951444,
              6.808558
            ],
            [
              79.952015,
              6.813942
            ],
            [
              79.952173,
              6.814099
            ],
            [
              79.954338,
              6.816366
            ],
            [
              79.957862,
              6.818952
            ],
            [
              79.959269,
              6.819318
            ],
            [
              79.96317,
              6.825798
            ],
            [
              79.967052,
              6.832271
            ]
          ]
        ],
        "type": "Polygon"
      }
    },
    {
      "type": "Feature",
      "properties": {
        "name": "kaduwela"
      },
      "geometry": {
        "coordinates": [
          [
            [
              79.945949,
              6.937384
            ],
            [
              79.962562,
              6.94151
            ],
            [
              79.963779,
              6.93945
            ],
            [
              79.964742,
              6.937708
            ],
            [
              79.96724,
              6.937354
            ],
            [
              79.97224,
              6.936769
            ],
            [
              79.978249,
              6.938169
            ],
            [
              79.982631,
              6.94
            ],
            [
              79.984179,
              6.940131
            ],
            [
              79.984797,
              6.940522
            ],
            [
              79.989019,
              6.942524
            ],
            [
              79.996248,
              6.94378
            ],
            [
              80.000411,
              6.942904
            ],
            [
              80.005813,
              6.945755
            ],
            [
              80.011823,
              6.947825
            ],
            [
              80.013385,
              6.946656
            ],
            [
              80.015421,
              6.939599
            ],
            [
              80.017603,
              6.93042
            ],
            [
              80.020945,
              6.925759
            ],
            [
              80.025143,
              6.923525
            ],
            [
              80.030572,
              6.923607
            ],
            [
              80.035942,
              6.922595
            ],
            [
              80.03908,
              6.92154
            ],
            [
              80.045668,
              6.913605
            ],
            [
              80.035876,
              6.905381
            ],
            [
              80.036104,
              6.902399
            ],
            [
              80.036259,
              6.897377
            ],
            [
              80.037566,
              6.892705
            ],
            [
              80.038996,
              6.889033
            ],
            [
              80.038911,
              6.885858
            ],
            [
              80.03733,
              6.882704
            ],
            [
              80.030576,
              6.881445
            ],
            [
              80.024834,
              6.881916
            ],
            [
              80.022768,
              6.88635
            ],
            [
              80.021267,
              6.890488
            ],
            [
              80.01981,
              6.891048
            ],
            [
              80.015137,
              6.891281
            ],
            [
              80.011388,
              6.890469
            ],
            [
              80.009999,
              6.884671
            ],
            [
              80.008542,
              6.879044
            ],
            [
              80.006881,
              6.876825
            ],
            [
              80.00635,
              6.871705
            ],
            [
              80.007128,
              6.86775
            ],
            [
              80.005326,
              6.864556
            ],
            [
              80.002505,
              6.861381
            ],
            [
              79.999242,
              6.861248
            ],
            [
              79.992701,
              6.859321
            ],
            [
              79.988615,
              6.856886
            ],
            [
              79.986258,
              6.860568
            ],
            [
              79.979839,
              6.864237
            ],
            [
              79.97366,
              6.86634
            ],
            [
              79.968272,
              6.867124
            ],
            [
              79.962891,
              6.866502
            ],
            [
              79.957446,
              6.869155
            ],
            [
              79.953186,
              6.87123
            ],
            [
              79.951312,
              6.87446
            ],
            [
              79.947838,
              6.879073
            ],
            [
              79.943796,
              6.880749
            ],
            [
              79.937539,
              6.879088
            ],
            [
              79.919622,
              6.885073
            ],
            [
              79.919874,
              6.886381
            ],
            [
              79.920091,
              6.888873
            ],
            [
              79.919204,
              6.890853
            ],
            [
              79.9171,
              6.8929
            ],
            [
              79.914495,
              6.895882
            ],
            [
              79.911444,
              6.898343
            ],
            [
              79.908629,
              6.900837
            ],
            [
              79.907235,
              6.902785
            ],
            [
              79.906768,
              6.903198
            ],
            [
              79.904532,
              6.905468
            ],
            [
              79.903064,
              6.915174
            ],
            [
              79.908767,
              6.916288
            ],
            [
              79.915084,
              6.919084
            ],
            [
              79.916375,
              6.921576
            ],
            [
              79.91917,
              6.922886
            ],
            [
              79.924186,
              6.923278
            ],
            [
              79.930092,
              6.921584
            ],
            [
              79.93405,
              6.92
            ],
            [
              79.93562,
              6.91969
            ],
            [
              79.937349,
              6.91896
            ],
            [
              79.939133,
              6.917795
            ],
            [
              79.940984,
              6.916614
            ],
            [
              79.946303,
              6.915016
            ],
            [
              79.952445,
              6.915475
            ],
            [
              79.955174,
              6.917945
            ],
            [
              79.956329,
              6.9206
            ],
            [
              79.954672,
              6.926346
            ],
            [
              79.945949,
              6.937384
            ]
          ]
        ],
        "type": "Polygon"
      }
    },
    {
      "type": "Feature",
      "properties": {
        "name": "kesbawa"
      },
      "geometry": {
        "coordinates": [
          [
            [
              79.89435,
              6.866215
            ],
            [
              79.898512,
              6.866535
            ],
            [
              79.899959,
              6.865421
            ],
            [
              79.903007,
              6.862439
            ],
            [
              79.904361,
              6.855908
            ],
            [
              79.905694,
              6.848862
            ],
            [
              79.911618,
              6.845209
            ],
            [
              79.917722,
              6.842428
            ],
            [
              79.918613,
              6.836548
            ],
            [
              79.918253,
              6.830846
            ],
            [
              79.922694,
              6.828551
            ],
            [
              79.928817,
              6.82829
            ],
            [
              79.933103,
              6.834496
            ],
            [
              79.936484,
              6.84
            ],
            [
              79.940182,
              6.840386
            ],
            [
              79.943113,
              6.841116
            ],
            [
              79.945157,
              6.843198
            ],
            [
              79.950726,
              6.845214
            ],
            [
              79.957269,
              6.84381
            ],
            [
              79.960639,
              6.842072
            ],
            [
              79.967052,
              6.832271
            ],
            [
              79.96317,
              6.825798
            ],
            [
              79.959269,
              6.819318
            ],
            [
              79.957862,
              6.818952
            ],
            [
              79.954338,
              6.816366
            ],
            [
              79.952173,
              6.814099
            ],
            [
              79.952015,
              6.813942
            ],
            [
              79.951444,
              6.808558
            ],
            [
              79.952192,
              6.80098
            ],
            [
              79.95572,
              6.797639
            ],
            [
              79.958744,
              6.796643
            ],
            [
              79.960459,
              6.796041
            ],
            [
              79.961734,
              6.795202
            ],
            [
              79.963449,
              6.790566
            ],
            [
              79.965016,
              6.785394
            ],
            [
              79.964138,
              6.782858
            ],
            [
              79.962206,
              6.778369
            ],
            [
              79.959666,
              6.775442
            ],
            [
              79.954298,
              6.772508
            ],
            [
              79.950332,
              6.769322
            ],
            [
              79.94977,
              6.766917
            ],
            [
              79.949468,
              6.764726
            ],
            [
              79.945824,
              6.747856
            ],
            [
              79.939161,
              6.747425
            ],
            [
              79.93494,
              6.747477
            ],
            [
              79.933494,
              6.747884
            ],
            [
              79.928555,
              6.747334
            ],
            [
              79.924938,
              6.746444
            ],
            [
              79.923887,
              6.747277
            ],
            [
              79.920962,
              6.749895
            ],
            [
              79.919499,
              6.756327
            ],
            [
              79.917825,
              6.762089
            ],
            [
              79.912681,
              6.763534
            ],
            [
              79.908913,
              6.763979
            ],
            [
              79.906846,
              6.767477
            ],
            [
              79.905547,
              6.770836
            ],
            [
              79.911052,
              6.781193
            ],
            [
              79.909915,
              6.783835
            ],
            [
              79.908244,
              6.785963
            ],
            [
              79.906863,
              6.792529
            ],
            [
              79.905075,
              6.798642
            ],
            [
              79.903846,
              6.802165
            ],
            [
              79.903445,
              6.805643
            ],
            [
              79.903276,
              6.810261
            ],
            [
              79.900946,
              6.815877
            ],
            [
              79.898544,
              6.817603
            ],
            [
              79.896442,
              6.828548
            ],
            [
              79.89538,
              6.831164
            ],
            [
              79.891802,
              6.8379
            ],
            [
              79.888055,
              6.843524
            ],
            [
              79.886596,
              6.850226
            ],
            [
              79.885198,
              6.857116
            ],
            [
              79.89435,
              6.866215
            ]
          ]
        ],
        "type": "Polygon"
      }
    },
    {
      "type": "Feature",
      "properties": {
        "name": "kolonnawa"
      },
      "geometry": {
        "coordinates": [
          [
            [
              79.87994767969938,
              6.95700560897487
            ],
            [
              79.89207215952658,
              6.95178081779104
            ],
            [
              79.89643051277983,
              6.95071525638918
            ],
            [
              79.9002390058812,
              6.95108396449737
            ],
            [
              79.90401046263841,
              6.95049476868148
            ],
            [
              79.90497492419593,
              6.94999747944724
            ],
            [
              79.90896645140916,
              6.94843892110677
            ],
            [
              79.91508773703421,
              6.94687744401497
            ],
            [
              79.92029225971274,
              6.94784894010456
            ],
            [
              79.9241210259076,
              6.95016787750114
            ],
            [
              79.92526401467087,
              6.95175657880804
            ],
            [
              79.92562792570052,
              6.95202835391751
            ],
            [
              79.94011045208096,
              6.94377354199334
            ],
            [
              79.94329151318004,
              6.93867395012233
            ],
            [
              79.94594871024857,
              6.93738351444365
            ],
            [
              79.95467166187548,
              6.92634638860895
            ],
            [
              79.95632933915478,
              6.92060048244143
            ],
            [
              79.95517403278562,
              6.91794542747515
            ],
            [
              79.95244466913886,
              6.91547453088133
            ],
            [
              79.94630280361223,
              6.91501590023139
            ],
            [
              79.94098422748127,
              6.91661421742136
            ],
            [
              79.93913303895661,
              6.91779457384737
            ],
            [
              79.93734923346179,
              6.91895967926854
            ],
            [
              79.9356198889964,
              6.9196900555025
            ],
            [
              79.9340501142145,
              6.92
            ],
            [
              79.9300922967171,
              6.92158402846679
            ],
            [
              79.92418600536273,
              6.92327760337825
            ],
            [
              79.91917009912356,
              6.9228860091158
            ],
            [
              79.91637535523375,
              6.92157619631651
            ],
            [
              79.91508372822332,
              6.91908433796132
            ],
            [
              79.908766714963,
              6.91628763787456
            ],
            [
              79.90306413141855,
              6.91517412405078
            ],
            [
              79.90079483567325,
              6.91806523096402
            ],
            [
              79.8894627689953,
              6.92039926526834
            ],
            [
              79.88473509976211,
              6.92767179788452
            ],
            [
              79.88130091019245,
              6.93351288509939
            ],
            [
              79.87971705525871,
              6.94102303954457
            ],
            [
              79.87815891155284,
              6.94262405220815
            ],
            [
              79.87562203155952,
              6.94639014138083
            ],
            [
              79.87393714756227,
              6.95037676658945
            ],
            [
              79.87589180954681,
              6.95303281654745
            ],
            [
              79.87872458901813,
              6.95599434077231
            ],
            [
              79.87994767969938,
              6.95700560897487
            ]
          ]
        ],
        "type": "Polygon"
      }
    },
    {
      "type": "Feature",
      "properties": {
        "name": "maharagama"
      },
      "geometry": {
        "coordinates": [
          [
            [
              79.919622,
              6.885073
            ],
            [
              79.937539,
              6.879088
            ],
            [
              79.943796,
              6.880749
            ],
            [
              79.947838,
              6.879073
            ],
            [
              79.951312,
              6.87446
            ],
            [
              79.953186,
              6.87123
            ],
            [
              79.957446,
              6.869155
            ],
            [
              79.962891,
              6.866502
            ],
            [
              79.968272,
              6.867124
            ],
            [
              79.97366,
              6.86634
            ],
            [
              79.979839,
              6.864237
            ],
            [
              79.986258,
              6.860568
            ],
            [
              79.988615,
              6.856886
            ],
            [
              79.988652,
              6.854869
            ],
            [
              79.990645,
              6.85016
            ],
            [
              79.992551,
              6.845353
            ],
            [
              79.992199,
              6.844181
            ],
            [
              79.989786,
              6.841244
            ],
            [
              79.984352,
              6.837992
            ],
            [
              79.980083,
              6.835166
            ],
            [
              79.97638,
              6.83234
            ],
            [
              79.970288,
              6.831739
            ],
            [
              79.967052,
              6.832271
            ],
            [
              79.960639,
              6.842072
            ],
            [
              79.957269,
              6.84381
            ],
            [
              79.950726,
              6.845214
            ],
            [
              79.945157,
              6.843198
            ],
            [
              79.943113,
              6.841116
            ],
            [
              79.940182,
              6.840386
            ],
            [
              79.936484,
              6.84
            ],
            [
              79.933103,
              6.834496
            ],
            [
              79.928817,
              6.82829
            ],
            [
              79.922694,
              6.828551
            ],
            [
              79.918253,
              6.830846
            ],
            [
              79.918613,
              6.836548
            ],
            [
              79.917722,
              6.842428
            ],
            [
              79.911618,
              6.845209
            ],
            [
              79.905694,
              6.848862
            ],
            [
              79.904361,
              6.855908
            ],
            [
              79.903007,
              6.862439
            ],
            [
              79.899959,
              6.865421
            ],
            [
              79.898512,
              6.866535
            ],
            [
              79.899278,
              6.871007
            ],
            [
              79.902318,
              6.878799
            ],
            [
              79.904868,
              6.882333
            ],
            [
              79.919622,
              6.885073
            ]
          ]
        ],
        "type": "Polygon"
      }
    },
    {
      "type": "Feature",
      "properties": {
        "name": "padukka"
      },
      "geometry": {
        "coordinates": [
          [
            [
              80.081115,
              6.860297
            ],
            [
              80.091219,
              6.858975
            ],
            [
              80.092416,
              6.858486
            ],
            [
              80.097969,
              6.861811
            ],
            [
              80.103465,
              6.866777
            ],
            [
              80.107433,
              6.868754
            ],
            [
              80.113148,
              6.873151
            ],
            [
              80.115841,
              6.878536
            ],
            [
              80.116701,
              6.880519
            ],
            [
              80.118438,
              6.883281
            ],
            [
              80.121515,
              6.886734
            ],
            [
              80.127372,
              6.888059
            ],
            [
              80.133949,
              6.88415
            ],
            [
              80.136748,
              6.880048
            ],
            [
              80.138457,
              6.88
            ],
            [
              80.142966,
              6.877034
            ],
            [
              80.146664,
              6.873054
            ],
            [
              80.149733,
              6.871127
            ],
            [
              80.152966,
              6.870496
            ],
            [
              80.155413,
              6.871929
            ],
            [
              80.160749,
              6.87488
            ],
            [
              80.164731,
              6.876632
            ],
            [
              80.170259,
              6.870042
            ],
            [
              80.175589,
              6.863498
            ],
            [
              80.181469,
              6.856078
            ],
            [
              80.185482,
              6.855126
            ],
            [
              80.187328,
              6.85522
            ],
            [
              80.189998,
              6.855459
            ],
            [
              80.195126,
              6.850397
            ],
            [
              80.198735,
              6.844903
            ],
            [
              80.19948,
              6.842784
            ],
            [
              80.2,
              6.840358
            ],
            [
              80.200655,
              6.838467
            ],
            [
              80.20219,
              6.836015
            ],
            [
              80.203363,
              6.831723
            ],
            [
              80.203006,
              6.82635
            ],
            [
              80.202844,
              6.822936
            ],
            [
              80.203276,
              6.819594
            ],
            [
              80.200797,
              6.815803
            ],
            [
              80.19567,
              6.812749
            ],
            [
              80.19068,
              6.813897
            ],
            [
              80.184428,
              6.817352
            ],
            [
              80.179804,
              6.818081
            ],
            [
              80.179148,
              6.81779
            ],
            [
              80.161896,
              6.817621
            ],
            [
              80.158694,
              6.820261
            ],
            [
              80.156199,
              6.823832
            ],
            [
              80.151376,
              6.826418
            ],
            [
              80.146421,
              6.825434
            ],
            [
              80.142306,
              6.822591
            ],
            [
              80.140508,
              6.820141
            ],
            [
              80.134709,
              6.815885
            ],
            [
              80.128703,
              6.812419
            ],
            [
              80.126309,
              6.811769
            ],
            [
              80.123733,
              6.810944
            ],
            [
              80.120473,
              6.808444
            ],
            [
              80.11718,
              6.804507
            ],
            [
              80.116981,
              6.798987
            ],
            [
              80.118658,
              6.793351
            ],
            [
              80.12,
              6.789767
            ],
            [
              80.120352,
              6.787176
            ],
            [
              80.122643,
              6.78492
            ],
            [
              80.125432,
              6.780488
            ],
            [
              80.125884,
              6.776293
            ],
            [
              80.124064,
              6.772614
            ],
            [
              80.118514,
              6.770707
            ],
            [
              80.113042,
              6.770519
            ],
            [
              80.111696,
              6.769923
            ],
            [
              80.106666,
              6.775216
            ],
            [
              80.102041,
              6.78121
            ],
            [
              80.102653,
              6.782413
            ],
            [
              80.102286,
              6.787967
            ],
            [
              80.100596,
              6.793982
            ],
            [
              80.099145,
              6.799074
            ],
            [
              80.096143,
              6.805157
            ],
            [
              80.092861,
              6.807453
            ],
            [
              80.091251,
              6.809979
            ],
            [
              80.090269,
              6.812442
            ],
            [
              80.088866,
              6.814899
            ],
            [
              80.086459,
              6.818304
            ],
            [
              80.083682,
              6.820216
            ],
            [
              80.078527,
              6.818139
            ],
            [
              80.074941,
              6.81505
            ],
            [
              80.074253,
              6.814253
            ],
            [
              80.072765,
              6.809391
            ],
            [
              80.070974,
              6.804205
            ],
            [
              80.0701,
              6.802993
            ],
            [
              80.07,
              6.801288
            ],
            [
              80.068575,
              6.798575
            ],
            [
              80.065218,
              6.794649
            ],
            [
              80.061845,
              6.791447
            ],
            [
              80.058628,
              6.791003
            ],
            [
              80.054524,
              6.793909
            ],
            [
              80.049747,
              6.796662
            ],
            [
              80.046552,
              6.797476
            ],
            [
              80.041515,
              6.80521
            ],
            [
              80.044097,
              6.814328
            ],
            [
              80.042385,
              6.819518
            ],
            [
              80.040784,
              6.82441
            ],
            [
              80.039872,
              6.827173
            ],
            [
              80.043816,
              6.830525
            ],
            [
              80.0504,
              6.833149
            ],
            [
              80.054766,
              6.832041
            ],
            [
              80.058805,
              6.831322
            ],
            [
              80.06152,
              6.83156
            ],
            [
              80.065251,
              6.835184
            ],
            [
              80.069428,
              6.83954
            ],
            [
              80.071247,
              6.840606
            ],
            [
              80.073238,
              6.840959
            ],
            [
              80.076784,
              6.843929
            ],
            [
              80.07859,
              6.851564
            ],
            [
              80.079307,
              6.858293
            ],
            [
              80.081115,
              6.860297
            ]
          ]
        ],
        "type": "Polygon"
      }
    },
    {
      "type": "Feature",
      "properties": {
        "name": "rathmalana"
      },
      "geometry": {
        "coordinates": [
          [
            [
              79.858749,
              6.845295
            ],
            [
              79.869522,
              6.847923
            ],
            [
              79.872557,
              6.847197
            ],
            [
              79.87592,
              6.843126
            ],
            [
              79.883603,
              6.841385
            ],
            [
              79.888055,
              6.843524
            ],
            [
              79.891802,
              6.8379
            ],
            [
              79.89538,
              6.831164
            ],
            [
              79.896442,
              6.828548
            ],
            [
              79.898544,
              6.817603
            ],
            [
              79.88792,
              6.813239
            ],
            [
              79.884429,
              6.8112
            ],
            [
              79.881763,
              6.810847
            ],
            [
              79.878699,
              6.808999
            ],
            [
              79.866018,
              6.804488
            ],
            [
              79.864525,
              6.806639
            ],
            [
              79.864586,
              6.809111
            ],
            [
              79.863724,
              6.809972
            ],
            [
              79.863724,
              6.8125
            ],
            [
              79.862915,
              6.813305
            ],
            [
              79.862892,
              6.816639
            ],
            [
              79.861221,
              6.819972
            ],
            [
              79.861221,
              6.824139
            ],
            [
              79.859581,
              6.827472
            ],
            [
              79.859581,
              6.829139
            ],
            [
              79.858719,
              6.829945
            ],
            [
              79.858719,
              6.833333
            ],
            [
              79.860443,
              6.834944
            ],
            [
              79.859558,
              6.843333
            ],
            [
              79.858749,
              6.844194
            ],
            [
              79.858749,
              6.845295
            ]
          ]
        ],
        "type": "Polygon"
      }
    },
    {
      "type": "Feature",
      "properties": {
        "name": "seethawaka"
      },
      "geometry": {
        "coordinates": [
          [
            [
              80.181922,
              6.978828
            ],
            [
              80.194082,
              6.976973
            ],
            [
              80.198723,
              6.976227
            ],
            [
              80.204526,
              6.97686
            ],
            [
              80.207224,
              6.977996
            ],
            [
              80.207841,
              6.978492
            ],
            [
              80.21595,
              6.974622
            ],
            [
              80.218534,
              6.970451
            ],
            [
              80.219821,
              6.965066
            ],
            [
              80.219658,
              6.961827
            ],
            [
              80.22,
              6.958201
            ],
            [
              80.220463,
              6.955487
            ],
            [
              80.221887,
              6.951335
            ],
            [
              80.222902,
              6.947569
            ],
            [
              80.223043,
              6.944367
            ],
            [
              80.220227,
              6.93561
            ],
            [
              80.217421,
              6.929815
            ],
            [
              80.217518,
              6.929675
            ],
            [
              80.207875,
              6.911134
            ],
            [
              80.204423,
              6.909711
            ],
            [
              80.201686,
              6.90844
            ],
            [
              80.196415,
              6.905665
            ],
            [
              80.189416,
              6.897879
            ],
            [
              80.187499,
              6.892566
            ],
            [
              80.187678,
              6.891596
            ],
            [
              80.183849,
              6.886148
            ],
            [
              80.180773,
              6.879482
            ],
            [
              80.181243,
              6.872789
            ],
            [
              80.178166,
              6.865729
            ],
            [
              80.175589,
              6.863498
            ],
            [
              80.170259,
              6.870042
            ],
            [
              80.164731,
              6.876632
            ],
            [
              80.160749,
              6.87488
            ],
            [
              80.155413,
              6.871929
            ],
            [
              80.152966,
              6.870496
            ],
            [
              80.149733,
              6.871127
            ],
            [
              80.146664,
              6.873054
            ],
            [
              80.142966,
              6.877034
            ],
            [
              80.138457,
              6.88
            ],
            [
              80.136748,
              6.880048
            ],
            [
              80.133949,
              6.88415
            ],
            [
              80.127372,
              6.888059
            ],
            [
              80.121515,
              6.886734
            ],
            [
              80.118438,
              6.883281
            ],
            [
              80.116701,
              6.880519
            ],
            [
              80.115841,
              6.878536
            ],
            [
              80.113148,
              6.873151
            ],
            [
              80.107433,
              6.868754
            ],
            [
              80.103465,
              6.866777
            ],
            [
              80.097969,
              6.861811
            ],
            [
              80.092416,
              6.858486
            ],
            [
              80.091219,
              6.858975
            ],
            [
              80.081115,
              6.860297
            ],
            [
              80.075939,
              6.874061
            ],
            [
              80.072308,
              6.879456
            ],
            [
              80.070415,
              6.882874
            ],
            [
              80.068758,
              6.885737
            ],
            [
              80.068292,
              6.890929
            ],
            [
              80.068387,
              6.894121
            ],
            [
              80.067926,
              6.894969
            ],
            [
              80.067277,
              6.897421
            ],
            [
              80.066862,
              6.904232
            ],
            [
              80.066678,
              6.90939
            ],
            [
              80.07415,
              6.910677
            ],
            [
              80.077783,
              6.90954
            ],
            [
              80.082032,
              6.908089
            ],
            [
              80.086639,
              6.908175
            ],
            [
              80.088545,
              6.909109
            ],
            [
              80.090507,
              6.912455
            ],
            [
              80.091667,
              6.917985
            ],
            [
              80.090675,
              6.921897
            ],
            [
              80.092945,
              6.926193
            ],
            [
              80.096366,
              6.934231
            ],
            [
              80.096501,
              6.940077
            ],
            [
              80.096605,
              6.944717
            ],
            [
              80.098863,
              6.950923
            ],
            [
              80.102566,
              6.9539
            ],
            [
              80.106509,
              6.956509
            ],
            [
              80.110548,
              6.959172
            ],
            [
              80.112914,
              6.96
            ],
            [
              80.11309,
              6.959998
            ],
            [
              80.116888,
              6.962881
            ],
            [
              80.121031,
              6.968647
            ],
            [
              80.123551,
              6.973153
            ],
            [
              80.129137,
              6.974317
            ],
            [
              80.133781,
              6.974225
            ],
            [
              80.135777,
              6.974217
            ],
            [
              80.140777,
              6.973902
            ],
            [
              80.147466,
              6.971982
            ],
            [
              80.152466,
              6.97
            ],
            [
              80.15504,
              6.97
            ],
            [
              80.158016,
              6.969573
            ],
            [
              80.16551,
              6.971442
            ],
            [
              80.17089,
              6.974815
            ],
            [
              80.172386,
              6.976039
            ],
            [
              80.173126,
              6.976186
            ],
            [
              80.177558,
              6.977508
            ],
            [
              80.181922,
              6.978828
            ]
          ]
        ],
        "type": "Polygon"
      }
    },
    {
      "type": "Feature",
      "properties": {
        "name": "jayawardanapura"
      },
      "geometry": {
        "coordinates": [
          [
            [
              79.889463,
              6.920399
            ],
            [
              79.900795,
              6.918065
            ],
            [
              79.903064,
              6.915174
            ],
            [
              79.904532,
              6.905468
            ],
            [
              79.906768,
              6.903198
            ],
            [
              79.907235,
              6.902785
            ],
            [
              79.908629,
              6.900837
            ],
            [
              79.911444,
              6.898343
            ],
            [
              79.914495,
              6.895882
            ],
            [
              79.9171,
              6.8929
            ],
            [
              79.919204,
              6.890853
            ],
            [
              79.920091,
              6.888873
            ],
            [
              79.919874,
              6.886381
            ],
            [
              79.919622,
              6.885073
            ],
            [
              79.904868,
              6.882333
            ],
            [
              79.902318,
              6.878799
            ],
            [
              79.899278,
              6.871007
            ],
            [
              79.898512,
              6.866535
            ],
            [
              79.89435,
              6.866215
            ],
            [
              79.885807,
              6.871649
            ],
            [
              79.882548,
              6.885643
            ],
            [
              79.881488,
              6.889557
            ],
            [
              79.881622,
              6.893412
            ],
            [
              79.882741,
              6.896822
            ],
            [
              79.883537,
              6.901679
            ],
            [
              79.884703,
              6.904703
            ],
            [
              79.886035,
              6.905943
            ],
            [
              79.887546,
              6.9068
            ],
            [
              79.88889,
              6.908576
            ],
            [
              79.889263,
              6.915071
            ],
            [
              79.889463,
              6.920399
            ]
          ]
        ],
        "type": "Polygon"
      }
    },
    {
      "type": "Feature",
      "properties": {
        "name": "thimbirigasyaya"
      },
      "geometry": {
        "coordinates": [
          [
            [
              79.845413,
              6.914766
            ],
            [
              79.852813,
              6.914368
            ],
            [
              79.865397,
              6.916638
            ],
            [
              79.868904,
              6.920815
            ],
            [
              79.870046,
              6.924419
            ],
            [
              79.871717,
              6.92827
            ],
            [
              79.876745,
              6.931165
            ],
            [
              79.881301,
              6.933513
            ],
            [
              79.884735,
              6.927672
            ],
            [
              79.889463,
              6.920399
            ],
            [
              79.889263,
              6.915071
            ],
            [
              79.88889,
              6.908576
            ],
            [
              79.887546,
              6.9068
            ],
            [
              79.886035,
              6.905943
            ],
            [
              79.884703,
              6.904703
            ],
            [
              79.883537,
              6.901679
            ],
            [
              79.882741,
              6.896822
            ],
            [
              79.881622,
              6.893412
            ],
            [
              79.881488,
              6.889557
            ],
            [
              79.882548,
              6.885643
            ],
            [
              79.885807,
              6.871649
            ],
            [
              79.879529,
              6.872904
            ],
            [
              79.871162,
              6.873813
            ],
            [
              79.867769,
              6.87222
            ],
            [
              79.8659,
              6.868154
            ],
            [
              79.864932,
              6.864932
            ],
            [
              79.863076,
              6.863744
            ],
            [
              79.855932,
              6.861385
            ],
            [
              79.855415,
              6.869167
            ],
            [
              79.854553,
              6.870028
            ],
            [
              79.854553,
              6.874166
            ],
            [
              79.853752,
              6.875028
            ],
            [
              79.853722,
              6.882472
            ],
            [
              79.852913,
              6.883333
            ],
            [
              79.852913,
              6.885806
            ],
            [
              79.852058,
              6.886611
            ],
            [
              79.851219,
              6.892472
            ],
            [
              79.850365,
              6.893333
            ],
            [
              79.849609,
              6.9
            ],
            [
              79.848724,
              6.900861
            ],
            [
              79.848724,
              6.904111
            ],
            [
              79.847916,
              6.904972
            ],
            [
              79.847916,
              6.907444
            ],
            [
              79.847054,
              6.908306
            ],
            [
              79.846252,
              6.913306
            ],
            [
              79.845413,
              6.914166
            ],
            [
              79.845413,
              6.914766
            ]
          ]
        ],
        "type": "Polygon"
      }
    }
  ]
}